NORAD_CAT_ID,OBJECT_NAME,OBJECT_TYPE,EPOCH,MEAN_MOTION,ECCENTRICITY,INCLINATION,RA_OF_ASC_NODE,ARG_OF_PERICENTER,MEAN_ANOMALY,BSTAR,MEAN_MOTION_DOT,MEAN_MOTION_DDOT,TLE_LINE0,TLE_LINE1,TLE_LINE2,SEMIMAJOR_AXIS,PERIOD,APOGEE,PERIGEE,DECAYED
54784.0,STARLINK-5442,PAYLOAD,2024-04-13 18:33:11,15.08841951,0.0001109,53.2169,283.4778,85.5759,274.536,9.9019e-05,1.289e-05,0.0,0 STARLINK-5442,1 54784U 22175AC  24104.77304837  .00001289  00000-0  99019-4 0  9997,2 54784  53.2169 283.4778 0001109  85.5759 274.5360 15.08841951 75017,6917.874,95.437,540.507,538.972,0.0
54784.0,STARLINK-5442,PAYLOAD,2024-04-14 12:02:25,15.08840665,0.0001103,53.217,280.2085,96.1426,263.9691,9.3765e-05,1.205e-05,0.0,0 STARLINK-5442,1 54784U 22175AC  24105.50168898  .00001205  00000-0  93765-4 0  9994,2 54784  53.2170 280.2085 0001103  96.1426 263.9691 15.08840665 72969,6917.878,95.438,540.506,538.98,0.0
54784.0,STARLINK-5442,PAYLOAD,2024-04-14 16:48:35,15.08840295,0.0001126,53.2172,279.316,89.4998,270.6123,7.5135e-05,9.08e-06,0.0,0 STARLINK-5442,1 54784U 22175AC  24105.70040953  .00000908  00000-0  75135-4 0  9997,2 54784  53.2172 279.3160 0001126  89.4998 270.6123 15.08840295 75156,6917.879,95.438,540.523,538.966,0.0
54784.0,STARLINK-5442,PAYLOAD,2024-04-15 11:53:13,15.08840281,0.0001143,53.2171,275.7473,90.6836,269.4287,9.2317e-05,1.182e-05,0.0,0 STARLINK-5442,1 54784U 22175AC  24106.49528947  .00001182  00000-0  92317-4 0  9994,2 54784  53.2171 275.7473 0001143  90.6836 269.4287 15.08840281 75271,6917.88,95.438,540.535,538.954,0.0
54784.0,STARLINK-5442,PAYLOAD,2024-04-16 10:08:36,15.08842351,0.0001922,53.2179,271.5858,82.3198,277.8013,0.00013551,1.869e-05,0.0,0 STARLINK-5442,1 54784U 22175AC  24107.42264993  .00001869  00000-0  13551-3 0  9990,2 54784  53.2179 271.5858 0001922  82.3198 277.8013 15.08842351 73250,6917.873,95.437,541.068,538.409,0.0
54784.0,STARLINK-5442,PAYLOAD,2024-04-16 14:54:46,15.08839278,0.0001495,53.2196,270.6971,98.5088,261.6073,8.4613e-05,1.059e-05,0.0,0 STARLINK-5442,1 54784U 22175AC  24107.62137013  .00001059  00000-0  84613-4 0  9993,2 54784  53.2196 270.6971 0001495  98.5088 261.6073 15.08839278 75441,6917.883,95.438,540.782,538.713,0.0
54784.0,STARLINK-5442,PAYLOAD,2024-04-16 18:05:32,15.08849274,0.0001287,53.2171,270.0978,98.1331,261.9807,0.00017534,2.504e-05,0.0,0 STARLINK-5442,1 54784U 22175AC  24107.75384296  .00002504  00000-0  17534-3 0  9997,2 54784  53.2171 270.0978 0001287  98.1331 261.9807 15.08849274 75468,6917.852,95.437,540.607,538.827,0.0
54784.0,STARLINK-5442,PAYLOAD,2024-04-17 14:45:33,15.08830687,0.0001211,53.217,266.2326,83.0017,277.1113,0.00013614,1.879e-05,0.0,0 STARLINK-5442,1 54784U 22175AC  24108.61497602  .00001879  00000-0  13614-3 0  9998,2 54784  53.2170 266.2326 0001211  83.0017 277.1113 15.08830687 75593,6917.909,95.438,540.612,538.936,0.0
54784.0,STARLINK-5442,PAYLOAD,2024-04-17 17:56:20,15.08820053,0.0001865,53.2173,265.6378,79.5114,280.6088,-0.00022169,-3.813e-05,0.0,0 STARLINK-5442,1 54784U 22175AC  24108.74746190 -.00003813  00000-0 -22169-3 0  9998,2 54784  53.2173 265.6378 0001865  79.5114 280.6088 15.08820053 73458,6917.941,95.439,541.097,538.516,0.0
54784.0,STARLINK-5442,PAYLOAD,2024-04-18 09:50:12,15.08820703,8.88e-05,53.2163,262.6589,115.2147,244.8937,0.00022406,3.278e-05,0.0,0 STARLINK-5442,1 54784U 22175AC  24109.40986415  .00003278  00000-0  22406-3 0  9995,2 54784  53.2163 262.6589 0000888 115.2147 244.8937 15.08820703 73554,6917.939,95.439,540.419,539.19,0.0
54784.0,STARLINK-5442,PAYLOAD,2024-04-18 17:47:07,15.08841437,0.0001545,53.2177,261.1827,66.4996,293.6158,0.00017047,2.426e-05,0.0,0 STARLINK-5442,1 54784U 22175AC  24109.74105678  .00002426  00000-0  17047-3 0  9995,2 54784  53.2177 261.1827 0001545  66.4996 293.6158 15.08841437 73608,6917.876,95.437,540.81,538.672,0.0
54784.0,STARLINK-5442,PAYLOAD,2024-04-19 14:27:08,15.08838114,0.0001416,53.2172,257.3103,92.6818,267.4336,0.00033067,4.978e-05,0.0,0 STARLINK-5442,1 54784U 22175AC  24110.60218073  .00004978  00000-0  33067-3 0  9990,2 54784  53.2172 257.3103 0001416  92.6818 267.4336 15.08838114 75896,6917.886,95.438,540.731,538.772,0.0
54784.0,STARLINK-5442,PAYLOAD,2024-04-19 16:02:31,15.08837847,0.0001551,53.2174,257.0143,86.5552,273.5618,0.00038659,5.87e-05,0.0,0 STARLINK-5442,1 54784U 22175AC  24110.66842172  .00005870  00000-0  38659-3 0  9993,2 54784  53.2174 257.0143 0001551  86.5552 273.5618 15.08837847 73741,6917.887,95.438,540.825,538.679,0.0
54784.0,STARLINK-5442,PAYLOAD,2024-04-20 12:42:31,15.08856001,0.0001373,53.2182,253.1415,114.5717,245.5418,9.5412e-06,-1.36e-06,0.0,0 STARLINK-5442,1 54784U 22175AC  24111.52952630 -.00000136  00000-0  95412-5 0  9993,2 54784  53.2182 253.1415 0001373 114.5717 245.5418 15.08856001 73870,6917.831,95.437,540.646,538.747,0.0
54784.0,STARLINK-5442,PAYLOAD,2024-04-20 14:17:54,15.08843181,0.0001542,53.2178,252.8497,73.6462,286.4699,-9.177e-05,-1.748e-05,0.0,0 STARLINK-5442,1 54784U 22175AC  24111.59577350 -.00001748  00000-0 -91770-4 0  9995,2 54784  53.2178 252.8497 0001542  73.6462 286.4699 15.08843181 76043,6917.871,95.437,540.802,538.669,0.0
54784.0,STARLINK-5442,PAYLOAD,2024-04-20 15:53:17,15.08851436,0.0001485,53.2174,252.5467,122.953,237.1605,-1.4924e-05,-5.26e-06,0.0,0 STARLINK-5442,1 54784U 22175AC  24111.66200687 -.00000526  00000-0 -14924-4 0  9998,2 54784  53.2174 252.5467 0001485 122.9530 237.1605 15.08851436 76056,6917.845,95.437,540.738,538.683,0.0
54784.0,STARLINK-5442,PAYLOAD,2024-04-21 14:08:42,15.08837551,0.0001439,53.2178,248.3846,96.1805,263.9351,-6.9462e-05,-1.393e-05,0.0,0 STARLINK-5442,1 54784U 22175AC  24112.58937990 -.00001393  00000-0 -69462-4 0  9994,2 54784  53.2178 248.3846 0001439  96.1805 263.9351 15.08837551 76192,6917.888,95.438,540.748,538.757,0.0
54784.0,STARLINK-5442,PAYLOAD,2024-04-21 18:54:51,15.0883569,0.0001459,53.2183,247.4939,96.0251,264.0908,-8.6181e-05,-1.659e-05,0.0,0 STARLINK-5442,1 54784U 22175AC  24112.78810151 -.00001659  00000-0 -86181-4 0  9997,2 54784  53.2183 247.4939 0001459  96.0251 264.0908 15.08835690 76223,6917.894,95.438,540.768,538.749,0.0
54784.0,STARLINK-5442,PAYLOAD,2024-04-22 09:13:20,15.08832971,0.0001524,53.2188,244.8188,97.3809,262.7357,3.2382e-05,2.27e-06,0.0,0 STARLINK-5442,1 54784U 22175AC  24113.38425974  .00000227  00000-0  32382-4 0  9991,2 54784  53.2188 244.8188 0001524  97.3809 262.7357 15.08832971 76313,6917.902,95.438,540.821,538.713,0.0
54784.0,STARLINK-5442,PAYLOAD,2024-04-22 13:59:29,15.0883063,0.0001522,53.2188,243.9263,102.8795,257.2367,7.4481e-06,-1.69e-06,0.0,0 STARLINK-5442,1 54784U 22175AC  24113.58298244 -.00000169  00000-0  74481-5 0  9994,2 54784  53.2188 243.9263 0001522 102.8795 257.2367 15.08830630 74184,6917.909,95.438,540.827,538.721,0.0
54784.0,STARLINK-5442,PAYLOAD,2024-04-23 13:50:17,15.08825467,0.0001741,53.2178,239.4665,114.1172,246.0003,4.9049e-05,4.92e-06,0.0,0 STARLINK-5442,1 54784U 22175AC  24114.57658949  .00000492  00000-0  49049-4 0  9995,2 54784  53.2178 239.4665 0001741 114.1172 246.0003 15.08825467 76498,6917.925,95.438,540.994,538.585,0.0
54784.0,STARLINK-5442,PAYLOAD,2024-04-23 15:25:40,15.0882526,0.0001654,53.2177,239.1692,111.6376,248.4792,4.9153e-05,4.94e-06,0.0,0 STARLINK-5442,1 54784U 22175AC  24114.64283037  .00000494  00000-0  49153-4 0  9993,2 54784  53.2177 239.1692 0001654 111.6376 248.4792 15.08825260 74349,6917.925,95.438,540.935,538.646,0.0
54784.0,STARLINK-5442,PAYLOAD,2024-04-24 12:05:38,15.08872799,0.0001696,53.2174,235.3037,112.6886,247.4286,0.0003949,6.008e-05,0.0,0 STARLINK-5442,1 54784U 22175AC  24115.50391303  .00006008  00000-0  39490-3 0  9994,2 54784  53.2174 235.3037 0001696 112.6886 247.4286 15.08872799 74470,6917.78,95.435,540.818,538.472,0.0
54784.0,STARLINK-5442,PAYLOAD,2024-04-24 13:41:01,15.08874337,0.0001564,53.2175,235.0069,110.4937,249.6223,0.00040452,6.162e-05,0.0,0 STARLINK-5442,1 54784U 22175AC  24115.57015090  .00006162  00000-0  40452-3 0  9998,2 54784  53.2175 235.0069 0001564 110.4937 249.6223 15.08874337 76646,6917.775,95.435,540.722,538.558,0.0
54784.0,STARLINK-5442,PAYLOAD,2024-04-24 15:16:23,15.08880474,0.0001372,53.2176,234.711,96.9847,263.1301,0.00045624,6.989e-05,0.0,0 STARLINK-5442,1 54784U 22175AC  24115.63638519  .00006989  00000-0  45624-3 0  9995,2 54784  53.2176 234.7110 0001372  96.9847 263.1301 15.08880474 74493,6917.757,95.435,540.571,538.673,0.0
54784.0,STARLINK-5442,PAYLOAD,2024-04-25 13:31:52,15.08819362,0.0001788,53.2179,230.5528,91.9397,268.18,-2.4773e-05,-6.82e-06,0.0,0 STARLINK-5442,1 54784U 22175AC  24116.56380423 -.00000682  00000-0 -24773-4 0  9995,2 54784  53.2179 230.5528 0001788  91.9397 268.1800 15.08819362 74632,6917.943,95.439,541.045,538.572,0.0
54784.0,STARLINK-5442,PAYLOAD,2024-04-25 15:07:15,15.08823032,0.0001884,53.2183,230.2549,85.1378,274.9829,9.5496e-06,-1.36e-06,0.0,0 STARLINK-5442,1 54784U 22175AC  24116.63004220 -.00000136  00000-0  95496-5 0  9995,2 54784  53.2183 230.2549 0001884  85.1378 274.9829 15.08823032 76804,6917.932,95.439,541.101,538.494,0.0
54784.0,STARLINK-5442,PAYLOAD,2024-04-26 13:22:38,15.08860192,0.0001541,53.2174,226.09,98.2048,261.9119,-0.00022518,-3.872e-05,0.0,0 STARLINK-5442,1 54784U 22175AC  24117.55738595 -.00003872  00000-0 -22518-3 0  9990,2 54784  53.2174 226.0900 0001541  98.2048 261.9119 15.08860192 74788,6917.819,95.436,540.75,538.618,0.0
54784.0,STARLINK-5442,PAYLOAD,2024-04-26 14:58:01,15.08863658,0.000156,53.2178,225.7937,89.6087,270.5084,-0.00021712,-3.744e-05,0.0,0 STARLINK-5442,1 54784U 22175AC  24117.62362388 -.00003744  00000-0 -21712-3 0  9994,2 54784  53.2178 225.7937 0001560  89.6087 270.5084 15.08863658 76954,6917.808,95.436,540.752,538.594,0.0
54784.0,STARLINK-5442,PAYLOAD,2024-04-27 13:13:26,15.08824106,0.0001459,53.2181,221.6287,116.7935,243.3207,2.5606e-05,1.19e-06,0.0,0 STARLINK-5442,1 54784U 22175AC  24118.55099925  .00000119  00000-0  25606-4 0  9999,2 54784  53.2181 221.6287 0001459 116.7935 243.3207 15.08824106 74938,6917.929,95.439,540.803,538.785,0.0
